{
  "links" : {
    "next" : "https://api.nasa.gov/neo/rest/v1/feed?start_date=2015-03-09&end_date=2015-03-09&detailed=true&api_key=t0TVs3DtDT2H8Oy2Zy8m2eVrNsAVKAexjcZXUckd",
    "prev" : "https://api.nasa.gov/neo/rest/v1/feed?start_date=2015-03-07&end_date=2015-03-07&detailed=true&api_key=t0TVs3DtDT2H8Oy2Zy8m2eVrNsAVKAexjcZXUckd",
    "self" : "https://api.nasa.gov/neo/rest/v1/feed?start_date=2015-03-08&end_date=2015-03-08&detailed=true&api_key=t0TVs3DtDT2H8Oy2Zy8m2eVrNsAVKAexjcZXUckd"
  },
  "element_count" : 7,
  "near_earth_objects" : {
    "2015-03-08" : [ {
      "links" : {
        "self" : "https://api.nasa.gov/neo/rest/v1/neo/3709958?api_key=t0TVs3DtDT2H8Oy2Zy8m2eVrNsAVKAexjcZXUckd"
      },
      "neo_reference_id" : "3709958",
      "name" : "(2015 BV515)",
      "nasa_jpl_url" : "http://ssd.jpl.nasa.gov/sbdb.cgi?sstr=3709958",
      "absolute_magnitude_h" : 21.0,
      "estimated_diameter" : {
        "kilometers" : {
          "estimated_diameter_min" : 0.1677084622,
          "estimated_diameter_max" : 0.3750075218
        },
        "meters" : {
          "estimated_diameter_min" : 167.7084621628,
          "estimated_diameter_max" : 375.0075217981
        },
        "miles" : {
          "estimated_diameter_min" : 0.1042091748,
          "estimated_diameter_max" : 0.2330187988
        },
        "feet" : {
          "estimated_diameter_min" : 550.2246310023,
          "estimated_diameter_max" : 1230.3396778159
        }
      },
      "is_potentially_hazardous_asteroid" : false,
      "close_approach_data" : [ {
        "close_approach_date" : "2015-03-08",
        "epoch_date_close_approach" : 1425801600000,
        "relative_velocity" : {
          "kilometers_per_second" : "20.3483000876",
          "kilometers_per_hour" : "73253.8803153992",
          "miles_per_hour" : "45517.1124659768"
        },
        "miss_distance" : {
          "astronomical" : "0.1582929624",
          "lunar" : "61.5759620667",
          "kilometers" : "23680290",
          "miles" : "14714250"
        },
        "orbiting_body" : "Earth"
      } ],
      "orbital_data" : {
        "orbit_id" : "7",
        "orbit_determination_date" : "2017-04-06 08:35:53",
        "orbit_uncertainty" : "7",
        "minimum_orbit_intersection" : ".0786573",
        "jupiter_tisserand_invariant" : "3.537",
        "epoch_osculation" : "2458000.5",
        "eccentricity" : ".6411598111698156",
        "semi_major_axis" : "2.006009823877281",
        "inclination" : "8.03803983588298",
        "ascending_node_longitude" : "106.876705817889",
        "orbital_period" : "1037.762588263478",
        "perihelion_distance" : ".7198369439953286",
        "perihelion_argument" : "139.9840165515186",
        "aphelion_distance" : "3.292182703759234",
        "perihelion_time" : "2458173.517572761662",
        "mean_anomaly" : "299.9801776450394",
        "mean_motion" : ".3469001523772404",
        "equinox" : "J2000"
      }
    }, {
      "links" : {
        "self" : "https://api.nasa.gov/neo/rest/v1/neo/3712627?api_key=t0TVs3DtDT2H8Oy2Zy8m2eVrNsAVKAexjcZXUckd"
      },
      "neo_reference_id" : "3712627",
      "name" : "(2015 DK200)",
      "nasa_jpl_url" : "http://ssd.jpl.nasa.gov/sbdb.cgi?sstr=3712627",
      "absolute_magnitude_h" : 25.6,
      "estimated_diameter" : {
        "kilometers" : {
          "estimated_diameter_min" : 0.0201629919,
          "estimated_diameter_max" : 0.0450858206
        },
        "meters" : {
          "estimated_diameter_min" : 20.1629919443,
          "estimated_diameter_max" : 45.0858206172
        },
        "miles" : {
          "estimated_diameter_min" : 0.0125286985,
          "estimated_diameter_max" : 0.0280150214
        },
        "feet" : {
          "estimated_diameter_min" : 66.1515504905,
          "estimated_diameter_max" : 147.9193637137
        }
      },
      "is_potentially_hazardous_asteroid" : false,
      "close_approach_data" : [ {
        "close_approach_date" : "2015-03-08",
        "epoch_date_close_approach" : 1425801600000,
        "relative_velocity" : {
          "kilometers_per_second" : "8.6082771797",
          "kilometers_per_hour" : "30989.7978469059",
          "miles_per_hour" : "19255.8552232621"
        },
        "miss_distance" : {
          "astronomical" : "0.0176986541",
          "lunar" : "6.8847765923",
          "kilometers" : "2647681",
          "miles" : "1645192.75"
        },
        "orbiting_body" : "Earth"
      } ],
      "orbital_data" : {
        "orbit_id" : "11",
        "orbit_determination_date" : "2017-04-06 08:35:19",
        "orbit_uncertainty" : "7",
        "minimum_orbit_intersection" : ".0145225",
        "jupiter_tisserand_invariant" : "4.917",
        "epoch_osculation" : "2458000.5",
        "eccentricity" : ".3252947999404099",
        "semi_major_axis" : "1.311327914152899",
        "inclination" : "1.813847793385589",
        "ascending_node_longitude" : "15.7333509278789",
        "orbital_period" : "548.485796996617",
        "perihelion_distance" : ".884759762662257",
        "perihelion_argument" : "207.9942505886786",
        "aphelion_distance" : "1.737896065643542",
        "perihelion_time" : "2458231.229799297412",
        "mean_anomaly" : "208.5599295334522",
        "mean_motion" : ".6563524561096711",
        "equinox" : "J2000"
      }
    }, {
      "links" : {
        "self" : "https://api.nasa.gov/neo/rest/v1/neo/3727337?api_key=t0TVs3DtDT2H8Oy2Zy8m2eVrNsAVKAexjcZXUckd"
      },
      "neo_reference_id" : "3727337",
      "name" : "(2015 RL82)",
      "nasa_jpl_url" : "http://ssd.jpl.nasa.gov/sbdb.cgi?sstr=3727337",
      "absolute_magnitude_h" : 18.4,
      "estimated_diameter" : {
        "kilometers" : {
          "estimated_diameter_min" : 0.5553349116,
          "estimated_diameter_max" : 1.2417666126
        },
        "meters" : {
          "estimated_diameter_min" : 555.334911581,
          "estimated_diameter_max" : 1241.766612574
        },
        "miles" : {
          "estimated_diameter_min" : 0.3450690093,
          "estimated_diameter_max" : 0.7715977618
        },
        "feet" : {
          "estimated_diameter_min" : 1821.9649913114,
          "estimated_diameter_max" : 4074.0375731972
        }
      },
      "is_potentially_hazardous_asteroid" : false,
      "close_approach_data" : [ {
        "close_approach_date" : "2015-03-08",
        "epoch_date_close_approach" : 1425801600000,
        "relative_velocity" : {
          "kilometers_per_second" : "26.5373548265",
          "kilometers_per_hour" : "95534.4773753428",
          "miles_per_hour" : "59361.4090113623"
        },
        "miss_distance" : {
          "astronomical" : "0.4271511468",
          "lunar" : "166.1617889404",
          "kilometers" : "63900904",
          "miles" : "39706180"
        },
        "orbiting_body" : "Earth"
      } ],
      "orbital_data" : {
        "orbit_id" : "15",
        "orbit_determination_date" : "2017-04-06 08:32:01",
        "orbit_uncertainty" : "4",
        "minimum_orbit_intersection" : ".105069",
        "jupiter_tisserand_invariant" : "3.437",
        "epoch_osculation" : "2458000.5",
        "eccentricity" : ".6139020982163329",
        "semi_major_axis" : "2.134952424018711",
        "inclination" : "8.521954138003229",
        "ascending_node_longitude" : "81.05931866646421",
        "orbital_period" : "1139.411842865285",
        "perihelion_distance" : ".8243006513215783",
        "perihelion_argument" : "167.5161766513503",
        "aphelion_distance" : "3.445604196715844",
        "perihelion_time" : "2458269.528863863630",
        "mean_anomaly" : "274.9996626791622",
        "mean_motion" : ".3159524821988036",
        "equinox" : "J2000"
      }
    } ]
  }
}